NORAD_CAT_ID,OBJECT_NAME,OBJECT_TYPE,EPOCH,MEAN_MOTION,ECCENTRICITY,INCLINATION,RA_OF_ASC_NODE,ARG_OF_PERICENTER,MEAN_ANOMALY,BSTAR,MEAN_MOTION_DOT,MEAN_MOTION_DDOT,TLE_LINE0,TLE_LINE1,TLE_LINE2,SEMIMAJOR_AXIS,PERIOD,APOGEE,PERIGEE,DECAYED
49753.0,STARLINK-3200,PAYLOAD,2022-07-16 18:25:20,15.08854547,0.0001725,53.2181,8.3643,52.5705,307.5444,0.00068198,0.00010587,0.0,0 STARLINK-3200,1 49753U 21115AF  22197.76759497  .00010587  00000-0  68198-3 0  9999,2 49753  53.2181   8.3643 0001725  52.5705 307.5444 15.08854547 35577,6917.8359999999975,95.437,540.894,538.508,0.0
49753.0,STARLINK-3200,PAYLOAD,2022-07-17 03:57:38,15.08845729,0.0001716,53.2177,6.5803,52.4647,307.6501,0.0001971,2.851e-05,0.0,0 STARLINK-3200,1 49753U 21115AF  22198.16503470  .00002851  00000-0  19710-3 0  9993,2 49753  53.2177   6.5803 0001716  52.4647 307.6501 15.08845729 35638,6917.863,95.437,540.915,538.5409999999998,0.0
49753.0,STARLINK-3200,PAYLOAD,2022-07-17 19:51:30,15.08845234,0.0001567,53.2184,3.6064,48.3697,311.7429,2.9754e-05,1.86e-06,0.0,0 STARLINK-3200,1 49753U 21115AF  22198.82743145  .00000186  00000-0  29754-4 0  9990,2 49753  53.2184   3.6064 0001567  48.3697 311.7429 15.08845234 34620,6917.864000000001,95.437,540.813,538.645,0.0
49753.0,STARLINK-3200,PAYLOAD,2022-07-18 03:48:25,15.08838814,0.0001585,53.2184,2.12,49.9653,310.1478,-0.00010472,-1.954e-05,0.0,0 STARLINK-3200,1 49753U 21115AF  22199.15863264 -.00001954  00000-0 -10472-3 0  9994,2 49753  53.2184   2.1200 0001585  49.9653 310.1478 15.08838814 35786,6917.884,95.438,540.845,538.653,0.0
49753.0,STARLINK-3200,PAYLOAD,2022-07-18 13:20:45,15.08828759,0.000147,53.2184,0.3357,50.0853,310.0268,-0.00018725,-3.266e-05,0.0,0 STARLINK-3200,1 49753U 21115AF  22199.55607647 -.00003266  00000-0 -18725-3 0  9996,2 49753  53.2184   0.3357 0001470  50.0853 310.0268 15.08828759 34734,6917.915,95.438,540.797,538.763,0.0
49753.0,STARLINK-3200,PAYLOAD,2022-07-18 19:42:17,15.08841149,0.0001641,53.2185,359.1462,50.8964,309.2174,-5.5515e-05,-1.171e-05,0.0,0 STARLINK-3200,1 49753U 21115AF  22199.82103570 -.00001171  00000-0 -55515-4 0  9994,2 49753  53.2185 359.1462 0001641  50.8964 309.2174 15.08841149 34776,6917.877,95.437,540.877,538.607,0.0
49753.0,STARLINK-3200,PAYLOAD,2022-07-19 19:33:04,15.08841609,0.0001716,53.2189,354.6872,55.2233,304.892,0.00018542,2.664e-05,0.0,0 STARLINK-3200,1 49753U 21115AF  22200.81463767  .00002664  00000-0  18542-3 0  9997,2 49753  53.2189 354.6872 0001716  55.2233 304.8920 15.08841609 36038,6917.875,95.437,540.928,538.553,0.0
49753.0,STARLINK-3200,PAYLOAD,2022-07-20 13:02:19,15.08843277,0.0001631999999999,53.2189,351.4152,55.8603,304.2544,0.00021937,3.205e-05,0.0,0 STARLINK-3200,1 49753U 21115AF  22201.54327615  .00003205  00000-0  21937-3 0  9993,2 49753  53.2189 351.4152 0001632  55.8603 304.2544 15.08843277 35036,6917.87,95.437,540.864,538.606,0.0
49753.0,STARLINK-3200,PAYLOAD,2022-07-20 19:23:51,15.08850586,0.0001696999999999,53.2186,350.226,56.8185,303.297,0.00022311,3.266e-05,0.0,0 STARLINK-3200,1 49753U 21115AF  22201.80823195  .00003266  00000-0  22311-3 0  9990,2 49753  53.2186 350.2260 0001697  56.8185 303.2970 15.08850586 35074,6917.848000000001,95.437,540.887,538.539,0.0
49753.0,STARLINK-3200,PAYLOAD,2022-07-21 03:20:47,15.08845271,0.0001783,53.2188,348.7385,58.9798,301.1369,0.0001208,1.635e-05,0.0,0 STARLINK-3200,1 49753U 21115AF  22202.13943362  .00001635  00000-0  12080-3 0  9996,2 49753  53.2188 348.7385 0001783  58.9798 301.1369 15.08845271 36238,6917.864000000001,95.437,540.9630000000002,538.496,0.0
49753.0,STARLINK-3200,PAYLOAD,2022-07-21 19:14:40,15.08823134,0.0001841,53.2197,345.7658,66.0289,294.0896,-9.6152e-05,-1.817e-05,0.0,0 STARLINK-3200,1 49753U 21115AF  22202.80185548 -.00001817  00000-0 -96152-4 0  9991,2 49753  53.2197 345.7658 0001841  66.0289 294.0896 15.08823134 35225,6917.932,95.439,541.071,538.523,0.0
49753.0,STARLINK-3200,PAYLOAD,2022-07-22 03:11:35,15.08832688,0.0001788,53.2192,344.2793,56.7632,303.3531,-4.3122e-05,-9.74e-06,0.0,0 STARLINK-3200,1 49753U 21115AF  22203.13305054 -.00000974  00000-0 -43122-4 0  9996,2 49753  53.2192 344.2793 0001788  56.7632 303.3531 15.08832688 36384,6917.903,95.438,541.005,538.531,0.0
49753.0,STARLINK-3200,PAYLOAD,2022-07-22 15:54:40,15.08838725,0.0001751999999999,53.2192,341.9002,56.4227,303.6933,7.7786e-05,9.5e-06,0.0,0 STARLINK-3200,1 49753U 21115AF  22203.66296657  .00000950  00000-0  77786-4 0  9997,2 49753  53.2192 341.9002 0001752  56.4227 303.6933 15.08838725 36465,6917.884,95.438,540.961,538.5369999999998,0.0
49753.0,STARLINK-3200,PAYLOAD,2022-07-22 19:05:26,15.08840371,0.0001831999999999,53.2184,341.3056,54.1087,306.0075,0.00013954,1.933e-05,0.0,0 STARLINK-3200,1 49753U 21115AF  22203.79544731  .00001933  00000-0  13954-3 0  9998,2 49753  53.2184 341.3056 0001832  54.1087 306.0075 15.08840371 35370,6917.879,95.438,541.012,538.477,0.0
49753.0,STARLINK-3200,PAYLOAD,2022-07-23 12:34:41,15.0884625,0.0001848,53.2181,338.0347,54.1422,305.9742,0.00049573,7.612e-05,0.0,0 STARLINK-3200,1 49753U 21115AF  22204.52408974  .00007612  00000-0  49573-3 0  9994,2 49753  53.2181 338.0347 0001848  54.1422 305.9742 15.08846250 35486,6917.861,95.437,541.005,538.448,0.0
49753.0,STARLINK-3200,PAYLOAD,2022-07-23 18:56:14,15.08841389,0.0001844999999999,53.2182,336.8452,52.1579,307.958,0.00023681,3.483e-05,0.0,0 STARLINK-3200,1 49753U 21115AF  22204.78905130  .00003483  00000-0  23681-3 0  9992,2 49753  53.2182 336.8452 0001845  52.1579 307.9580 15.08841389 36636,6917.876,95.437,541.0169999999998,538.465,0.0
49753.0,STARLINK-3200,PAYLOAD,2022-07-24 12:25:28,15.08835588,0.0001816,53.2184,333.5756,53.71,306.406,-0.00010044,-1.886e-05,0.0,0 STARLINK-3200,1 49753U 21115AF  22205.51769188 -.00001886  00000-0 -10044-3 0  9991,2 49753  53.2184 333.5756 0001816  53.7100 306.4060 15.08835588 35634,6917.894,95.438,541.015,538.503,0.0
49753.0,STARLINK-3200,PAYLOAD,2022-07-24 17:11:38,15.08835628,0.0001829,53.2194,332.6844,55.7651,304.3514,-3.4028e-05,-8.3e-06,0.0,0 STARLINK-3200,1 49753U 21115AF  22205.71641317 -.00000830  00000-0 -34028-4 0  9993,2 49753  53.2194 332.6844 0001829  55.7651 304.3514 15.08835628 36772,6917.894,95.438,541.024,538.493,0.0
49753.0,STARLINK-3200,PAYLOAD,2022-07-25 09:05:29,15.08838409,0.0001703,53.219,329.7101,53.1642,306.9506,8.9345e-06,-1.46e-06,0.0,0 STARLINK-3200,1 49753U 21115AF  22206.37881354 -.00000146  00000-0  89345-5 0  9995,2 49753  53.2190 329.7101 0001703  53.1642 306.9506 15.08838409 35761,6917.885,95.438,540.928,538.572,0.0
49753.0,STARLINK-3200,PAYLOAD,2022-07-25 18:37:48,15.08828242,0.0001779,53.2184,327.9249,52.3414,307.7739,-3.2137e-05,-7.99e-06,0.0,0 STARLINK-3200,1 49753U 21115AF  22206.77626116 -.00000799  00000-0 -32137-4 0  9993,2 49753  53.2184 327.9249 0001779  52.3414 307.7739 15.08828242 35826,6917.916,95.438,541.012,538.5509999999998,0.0
49753.0,STARLINK-3200,PAYLOAD,2022-07-26 13:42:26,15.08844738,0.000162,53.219,324.3566,49.1209,310.9923,-8.4462e-05,-1.632e-05,0.0,0 STARLINK-3200,1 49753U 21115AF  22207.57114182 -.00001632  00000-0 -84462-4 0  9992,2 49753  53.2190 324.3566 0001620  49.1209 310.9923 15.08844738 35949,6917.866,95.437,540.852,538.61,0.0
49753.0,STARLINK-3200,PAYLOAD,2022-07-26 16:53:13,15.08834243,0.0001751999999999,53.2189,323.762,51.7389,308.376,9.3118e-05,1.194e-05,0.0,0 STARLINK-3200,1 49753U 21115AF  22207.70362526  .00001194  00000-0  93118-4 0  9993,2 49753  53.2189 323.7620 0001752  51.7389 308.3760 15.08834243 35967,6917.898,95.438,540.975,538.5509999999998,0.0
49753.0,STARLINK-3200,PAYLOAD,2022-07-27 00:50:08,15.08838264,0.000178,53.2191,322.2752,52.6325,307.4829,9.3191e-05,1.195e-05,0.0,0 STARLINK-3200,1 49753U 21115AF  22208.03482376  .00001195  00000-0  93191-4 0  9998,2 49753  53.2191 322.2752 0001780  52.6325 307.4829 15.08838264 37124,6917.886,95.438,540.982,538.519,0.0
49753.0,STARLINK-3200,PAYLOAD,2022-07-27 13:33:13,15.08841928,0.0001744,53.2185,319.8961,52.6235,307.4916,0.0001876999999999,2.701e-05,0.0,0 STARLINK-3200,1 49753U 21115AF  22208.56474059  .00002701  00000-0  18770-3 0  9998,2 49753  53.2185 319.8961 0001744  52.6235 307.4916 15.08841928 36094,6917.874,95.437,540.946,538.533,0.0
49753.0,STARLINK-3200,PAYLOAD,2022-07-27 16:43:59,15.08840997,0.0001754,53.2186,319.3016,52.8904,307.2248,0.00022901,3.359e-05,0.0,0 STARLINK-3200,1 49753U 21115AF  22208.69722177  .00003359  00000-0  22901-3 0  9990,2 49753  53.2186 319.3016 0001754  52.8904 307.2248 15.08840997 36111,6917.877,95.437,540.956,538.529,0.0
49753.0,STARLINK-3200,PAYLOAD,2022-07-28 00:40:55,15.08847423,0.0001756,53.2187,317.8149,53.2543,306.861,0.00024586,3.628e-05,0.0,0 STARLINK-3200,1 49753U 21115AF  22209.02841758  .00003628  00000-0  24586-3 0  9995,2 49753  53.2187 317.8149 0001756  53.2543 306.8610 15.08847423 37275,6917.858,95.437,540.937,538.508,0.0
49753.0,STARLINK-3200,PAYLOAD,2022-07-28 13:23:59,15.08857465,0.0001803,53.2181,315.4361,52.7933,307.3224,0.00032042,4.817e-05,0.0,0 STARLINK-3200,1 49753U 21115AF  22209.55833221  .00004817  00000-0  32042-3 0  9996,2 49753  53.2181 315.4361 0001803  52.7933 307.3224 15.08857465 36249,6917.8269999999975,95.436,540.939,538.445,0.0
49753.0,STARLINK-3200,PAYLOAD,2022-07-29 02:07:05,15.08849359,0.0001788,53.2177,313.0573,52.5332,307.5823,0.00010285,1.35e-05,0.0,0 STARLINK-3200,1 49753U 21115AF  22210.08825259  .00001350  00000-0  10285-3 0  9992,2 49753  53.2177 313.0573 0001788  52.5332 307.5823 15.08849359 37438,6917.852,95.437,540.9540000000002,538.48,0.0
49753.0,STARLINK-3200,PAYLOAD,2022-07-29 13:14:46,15.08853277,0.0001776999999999,53.2177,310.9757,52.8353,307.2802,0.00012118,1.642e-05,0.0,0 STARLINK-3200,1 49753U 21115AF  22210.55192734  .00001642  00000-0  12118-3 0  9990,2 49753  53.2177 310.9757 0001777  52.8353 307.2802 15.08853277 36394,6917.84,95.437,540.934,538.476,0.0
